NORAD_CAT_ID,OBJECT_NAME,OBJECT_TYPE,EPOCH,MEAN_MOTION,ECCENTRICITY,INCLINATION,RA_OF_ASC_NODE,ARG_OF_PERICENTER,MEAN_ANOMALY,BSTAR,MEAN_MOTION_DOT,MEAN_MOTION_DDOT,TLE_LINE0,TLE_LINE1,TLE_LINE2,SEMIMAJOR_AXIS,PERIOD,APOGEE,PERIGEE,DECAYED
52303.0,STARLINK-3742,PAYLOAD,2023-06-23 23:14:31,15.08832227,0.0001086,53.2147,222.1501,80.6047,279.5068,8.5628e-06,-1.52e-06,0.0,0 STARLINK-3742,1 52303U 22041AU  23174.96841763 -.00000152  00000-0  85628-5 0  9996,2 52303  53.2147 222.1501 0001086  80.6047 279.5068 15.08832227 66311,6917.904,95.438,540.52,539.018,0.0
52303.0,STARLINK-3742,PAYLOAD,2023-06-25 08:37:37,15.0884286,0.0001109,53.2146,215.9044,83.2423,276.8695,0.00012742,1.741e-05,0.0,0 STARLINK-3742,1 52303U 22041AU  23176.35945624  .00001741  00000-0  12742-3 0  9991,2 52303  53.2146 215.9044 0001109  83.2423 276.8695 15.08842860 66528,6917.872,95.437,540.504,538.969,0.0
52303.0,STARLINK-3742,PAYLOAD,2023-06-26 02:06:51,15.08838678,0.0001152,53.2147,212.6339,86.0682,274.0442,0.00013687,1.891e-05,0.0,0 STARLINK-3742,1 52303U 22041AU  23177.08809948  .00001891  00000-0  13687-3 0  9995,2 52303  53.2147 212.6339 0001152  86.0682 274.0442 15.08838678 66630,6917.884,95.438,540.546,538.952,0.0
52303.0,STARLINK-3742,PAYLOAD,2023-06-27 08:19:11,15.088389,0.0001117,53.2147,206.9838,86.1972,273.9148,5.1944e-05,5.39e-06,0.0,0 STARLINK-3742,1 52303U 22041AU  23178.34666101  .00000539  00000-0  51944-4 0  9994,2 52303  53.2147 206.9838 0001117  86.1972 273.9148 15.08838900 66824,6917.884,95.438,540.521,538.976,0.0
52303.0,STARLINK-3742,PAYLOAD,2023-06-28 12:56:07,15.08841305,0.0001101,53.2153,201.631,86.3044,273.8074,7.4254e-05,8.94e-06,0.0,0 STARLINK-3742,1 52303U 22041AU  23179.53897923  .00000894  00000-0  74254-4 0  9997,2 52303  53.2153 201.6310 0001101  86.3044 273.8074 15.08841305 67004,6917.876,95.437,540.503,538.98,0.0
52303.0,STARLINK-3742,PAYLOAD,2023-06-30 12:37:42,15.08838751,0.0001133,53.2157,192.7097,85.0404,275.0717,4.0583e-05,3.58e-06,0.0,0 STARLINK-3742,1 52303U 22041AU  23181.52618271  .00000358  00000-0  40583-4 0  9999,2 52303  53.2157 192.7097 0001133  85.0404 275.0717 15.08838751 67303,6917.884,95.438,540.533,538.965,0.0
52303.0,STARLINK-3742,PAYLOAD,2023-07-01 17:14:38,15.08836197,0.0001108,53.2156,187.357,82.4863,277.6255,2.7629e-05,1.52e-06,0.0,0 STARLINK-3742,1 52303U 22041AU  23182.71850652  .00000152  00000-0  27629-4 0  9990,2 52303  53.2156 187.3570 0001108  82.4863 277.6255 15.08836197 67486,6917.892,95.438,540.524,538.991,0.0
52303.0,STARLINK-3742,PAYLOAD,2023-07-03 08:59:17,15.08839774,0.0001075,53.2157,179.9229,85.5782,274.5333,6.1567e-05,6.92e-06,0.0,0 STARLINK-3742,1 52303U 22041AU  23184.37450589  .00000692  00000-0  61567-4 0  9997,2 52303  53.2157 179.9229 0001075  85.5782 274.5333 15.08839774 67737,6917.881,95.438,540.49,539.002,0.0
52303.0,STARLINK-3742,PAYLOAD,2023-07-04 16:46:59,15.08841864,0.0001137,53.2162,173.9758,85.3496,274.7626,4.9843e-05,5.06e-06,0.0,0 STARLINK-3742,1 52303U 22041AU  23185.69930503  .00000506  00000-0  49843-4 0  9999,2 52303  53.2162 173.9758 0001137  85.3496 274.7626 15.08841864 67935,6917.875,95.437,540.526,538.953,0.0
52303.0,STARLINK-3742,PAYLOAD,2023-07-06 02:10:06,15.08838441,0.0001163,53.2167,167.7316,85.2972,274.8153,1.677e-05,-2.1e-07,0.0,0 STARLINK-3742,1 52303U 22041AU  23187.09034761 -.00000021  00000-0  16770-4 0  9992,2 52303  53.2167 167.7316 0001163  85.2972 274.8153 15.08838441 68145,6917.885,95.438,540.555,538.946,0.0
52303.0,STARLINK-3742,PAYLOAD,2023-07-07 14:43:58,15.0883958,0.0001238,53.2169,160.892,88.4631,271.6503,1.8976e-05,1.4e-07,0.0,0 STARLINK-3742,1 52303U 22041AU  23188.61386795  .00000014  00000-0  18976-4 0  9999,2 52303  53.2169 160.8920 0001238  88.4631 271.6503 15.08839580 68376,6917.882,95.438,540.603,538.89,0.0
52303.0,STARLINK-3742,PAYLOAD,2023-07-08 14:34:43,15.08862824,0.0001147,53.2169,156.4312,88.264,271.8483,0.00021878,3.198e-05,0.0,0 STARLINK-3742,1 52303U 22041AU  23189.60744498  .00003198  00000-0  21878-3 0  9997,2 52303  53.2169 156.4312 0001147  88.2640 271.8483 15.08862824 68522,6917.811,95.436,540.469,538.882,0.0
52303.0,STARLINK-3742,PAYLOAD,2023-07-09 04:53:14,15.08823357,0.0001089,53.2169,153.7561,100.4804,259.6311,-5.5093e-05,-1.164e-05,0.0,0 STARLINK-3742,1 52303U 22041AU  23190.20364029 -.00001164  00000-0 -55093-4 0  9993,2 52303  53.2169 153.7561 0001089 100.4804 259.6311 15.08823357 68614,6917.931,95.439,540.55,539.043,0.0
52303.0,STARLINK-3742,PAYLOAD,2023-07-10 03:08:38,15.08835634,0.0001059,53.2171,149.5926,96.741,263.3703,1.9361e-05,2e-07,0.0,0 STARLINK-3742,1 52303U 22041AU  23191.13099692  .00000020  00000-0  19361-4 0  9993,2 52303  53.2171 149.5926 0001059  96.7410 263.3703 15.08835634 68755,6917.894,95.438,540.491,539.026,0.0
52303.0,STARLINK-3742,PAYLOAD,2023-07-11 04:34:48,15.08839247,9.66e-05,53.2173,144.8346,95.4445,264.6657,0.00027368,4.07e-05,0.0,0 STARLINK-3742,1 52303U 22041AU  23192.19083377  .00004070  00000-0  27368-3 0  9997,2 52303  53.2173 144.8346 0000966  95.4445 264.6657 15.08839247 68915,6917.883,95.438,540.416,539.079,0.0
52303.0,STARLINK-3742,PAYLOAD,2023-07-12 06:00:57,15.08853062,0.0001033,53.2161,140.0763,92.285,267.8261,0.00028751,4.292e-05,0.0,0 STARLINK-3742,1 52303U 22041AU  23193.25067084  .00004292  00000-0  28751-3 0  9995,2 52303  53.2161 140.0763 0001033  92.2850 267.8261 15.08853062 69079,6917.84,95.437,540.42,538.991,0.0
52303.0,STARLINK-3742,PAYLOAD,2023-07-12 13:57:54,15.08841819,0.000133,53.2166,138.5906,80.8596,279.2546,9.4442e-05,1.216e-05,0.0,0 STARLINK-3742,1 52303U 22041AU  23193.58187759  .00001216  00000-0  94442-4 0  9997,2 52303  53.2166 138.5906 0001330  80.8596 279.2546 15.08841819 69121,6917.875,95.437,540.66,538.82,0.0
52303.0,STARLINK-3742,PAYLOAD,2023-07-13 21:45:37,15.08838687,0.0001234,53.2161,132.642,93.124,266.9894,3.1158e-05,2.08e-06,0.0,0 STARLINK-3742,1 52303U 22041AU  23194.90667949  .00000208  00000-0  31158-4 0  9993,2 52303  53.2161 132.6420 0001234  93.1240 266.9894 15.08838687 69328,6917.884,95.438,540.603,538.896,0.0
52303.0,STARLINK-3742,PAYLOAD,2023-07-15 02:22:32,15.08852294,0.0001066,53.2164,127.2897,88.1858,271.9256,0.00031929,4.799e-05,0.0,0 STARLINK-3742,1 52303U 22041AU  23196.09899203  .00004799  00000-0  31929-3 0  9999,2 52303  53.2164 127.2897 0001066  88.1858 271.9256 15.08852294 69509,6917.843,95.437,540.445,538.97,0.0
52303.0,STARLINK-3742,PAYLOAD,2023-07-16 03:48:43,15.08839994,0.0001013,53.2163,122.5328,102.4378,257.6728,1.3722e-05,-6.9e-07,0.0,0 STARLINK-3742,1 52303U 22041AU  23197.15883777 -.00000069  00000-0  13722-4 0  9995,2 52303  53.2163 122.5328 0001013 102.4378 257.6728 15.08839994 69668,6917.88,95.438,540.446,539.045,0.0
52303.0,STARLINK-3742,PAYLOAD,2023-07-17 02:04:06,15.08857582,0.0001008,53.2166,118.3707,111.6907,248.4192,0.00030993,4.65e-05,0.0,0 STARLINK-3742,1 52303U 22041AU  23198.08618851  .00004650  00000-0  30993-3 0  9994,2 52303  53.2166 118.3707 0001008 111.6907 248.4192 15.08857582 69801,6917.827,95.436,540.389,538.994,0.0
52303.0,STARLINK-3742,PAYLOAD,2023-07-17 11:36:25,15.08853084,8.92e-05,53.2165,116.5832,87.8635,272.2459,0.00037567,5.698e-05,0.0,0 STARLINK-3742,1 52303U 22041AU  23198.48362942  .00005698  00000-0  37567-3 0  9992,2 52303  53.2165 116.5832 0000892  87.8635 272.2459 15.08853084 69861,6917.84,95.437,540.322,539.088,0.0
52303.0,STARLINK-3742,PAYLOAD,2023-07-18 01:54:54,15.08837963,0.0001498,53.2168,113.9108,87.344,272.7724,-6.5474e-05,-1.33e-05,0.0,0 STARLINK-3742,1 52303U 22041AU  23199.07979549 -.00001330  00000-0 -65474-4 0  9995,2 52303  53.2168 113.9108 0001498  87.3440 272.7724 15.08837963 69951,6917.887,95.438,540.788,538.715,0.0
52303.0,STARLINK-3742,PAYLOAD,2023-07-18 17:48:46,15.0883261,0.000141,53.2166,110.9384,73.167,286.9476,-1.6121e-05,-5.44e-06,0.0,0 STARLINK-3742,1 52303U 22041AU  23199.74220153 -.00000544  00000-0 -16121-4 0  9990,2 52303  53.2166 110.9384 0001410  73.1670 286.9476 15.08832610 70052,6917.903,95.438,540.743,538.793,0.0
52303.0,STARLINK-3742,PAYLOAD,2023-07-20 03:11:52,15.08846386,0.0001157,53.2168,104.6924,88.8998,271.2127,0.00050835,7.813e-05,0.0,0 STARLINK-3742,1 52303U 22041AU  23201.13324673  .00007813  00000-0  50835-3 0  9992,2 52303  53.2168 104.6924 0001157  88.8998 271.2127 15.08846386 70266,6917.861,95.437,540.526,538.925,0.0
52303.0,STARLINK-3742,PAYLOAD,2023-07-20 23:51:53,15.08842852,0.0001251,53.2169,100.8261,83.8169,276.2965,0.00024274,3.578e-05,0.0,0 STARLINK-3742,1 52303U 22041AU  23201.99436880  .00003578  00000-0  24274-3 0  9992,2 52303  53.2169 100.8261 0001251  83.8169 276.2965 15.08842852 70392,6917.872,95.437,540.602,538.871,0.0
52303.0,STARLINK-3742,PAYLOAD,2023-07-24 02:35:00,15.0881776,0.0003212,53.2155,86.8429,203.5537,156.5309,-0.00036073,-6.022e-05,0.0,0 STARLINK-3742,1 52303U 22041AU  23205.10764989 -.00006022  00000-0 -36073-3 0  9992,2 52303  53.2155  86.8429 0003212 203.5537 156.5309 15.08817760 70869,6917.948,95.439,542.035,537.591,0.0
52303.0,STARLINK-3742,PAYLOAD,2023-07-25 02:25:49,15.08856689,0.0001393,53.2165,82.3905,67.4993,292.6146,0.00063487,9.835e-05,0.0,0 STARLINK-3742,1 52303U 22041AU  23206.10126197  .00009835  00000-0  63487-3 0  9998,2 52303  53.2165  82.3905 0001393  67.4993 292.6146 15.08856689 71013,6917.829,95.436,540.658,538.731,0.0
52303.0,STARLINK-3742,PAYLOAD,2023-07-26 00:41:12,15.08859598,8.15e-05,53.2173,78.2243,110.103,250.005,0.0003222,4.846e-05,0.0,0 STARLINK-3742,1 52303U 22041AU  23207.02861183  .00004846  00000-0  32220-3 0  9999,2 52303  53.2173  78.2243 0000815 110.1030 250.0050 15.08859598 71156,6917.82,95.436,540.249,539.122,0.0
52303.0,STARLINK-3742,PAYLOAD,2023-07-26 21:21:12,15.08854146,0.000109,53.2164,74.3616,81.8419,278.2697,0.00010275,1.348e-05,0.0,0 STARLINK-3742,1 52303U 22041AU  23207.88972800  .00001348  00000-0  10275-3 0  9992,2 52303  53.2164  74.3616 0001090  81.8419 278.2697 15.08854146 71285,6917.837,95.437,540.456,538.948,0.0
